[{"CCSDS_OMM_VERS":"3.0","COMMENT":"GENERATED VIA SPACE-TRACK.ORG API","CREATION_DATE":"2026-05-16T19:56:29","ORIGINATOR":"18 SPCS","OBJECT_NAME":"OPS 7613 (P\/L 1)","OBJECT_ID":"1969-082B","CENTER_NAME":"EARTH","REF_FRAME":"TEME","TIME_SYSTEM":"UTC","MEAN_ELEMENT_THEORY":"SGP4","EPOCH":"2026-05-16T10:10:44.947776","MEAN_MOTION":"13.99188096","ECCENTRICITY":"0.00171030","INCLINATION":"70.0110","RA_OF_ASC_NODE":"33.2497","ARG_OF_PERICENTER":"109.5236","MEAN_ANOMALY":"250.7721","EPHEMERIS_TYPE":"0","CLASSIFICATION_TYPE":"U","NORAD_CAT_ID":"4256","ELEMENT_SET_NO":"999","REV_AT_EPOCH":"88602","BSTAR":"0.00008213600000","MEAN_MOTION_DOT":"0.00000066","MEAN_MOTION_DDOT":"0.0000000000000","SEMIMAJOR_AXIS":"7274.745","PERIOD":"102.917","APOAPSIS":"909.052","PERIAPSIS":"884.168","OBJECT_TYPE":"PAYLOAD","RCS_SIZE":"MEDIUM","COUNTRY_CODE":"US","LAUNCH_DATE":"1969-09-30","SITE":"AFWTR","DECAY_DATE":null,"FILE":"5196773","GP_ID":"323495457","TLE_LINE0":"0 OPS 7613 (P\/L 1)","TLE_LINE1":"1  4256U 69082B   26136.42413134  .00000066  00000-0  82136-4 0  9998","TLE_LINE2":"2  4256  70.0110  33.2497 0017103 109.5236 250.7721 13.99188096886026"},{"CCSDS_OMM_VERS":"3.0","COMMENT":"GENERATED VIA SPACE-TRACK.ORG API","CREATION_DATE":"2026-05-16T19:56:29","ORIGINATOR":"18 SPCS","OBJECT_NAME":"TIMATION 2","OBJECT_ID":"1969-082C","CENTER_NAME":"EARTH","REF_FRAME":"TEME","TIME_SYSTEM":"UTC","MEAN_ELEMENT_THEORY":"SGP4","EPOCH":"2026-05-16T11:34:06.845088","MEAN_MOTION":"13.96377239","ECCENTRICITY":"0.00200150","INCLINATION":"70.0129","RA_OF_ASC_NODE":"159.3264","ARG_OF_PERICENTER":"171.5160","MEAN_ANOMALY":"338.1947","EPHEMERIS_TYPE":"0","CLASSIFICATION_TYPE":"U","NORAD_CAT_ID":"4257","ELEMENT_SET_NO":"999","REV_AT_EPOCH":"88222","BSTAR":"0.00005633600000","MEAN_MOTION_DOT":"0.00000025","MEAN_MOTION_DDOT":"0.0000000000000","SEMIMAJOR_AXIS":"7284.504","PERIOD":"103.124","APOAPSIS":"920.949","PERIAPSIS":"891.789","OBJECT_TYPE":"PAYLOAD","RCS_SIZE":"MEDIUM","COUNTRY_CODE":"US","LAUNCH_DATE":"1969-09-30","SITE":"AFWTR","DECAY_DATE":null,"FILE":"5196773","GP_ID":"323494957","TLE_LINE0":"0 TIMATION 2","TLE_LINE1":"1  4257U 69082C   26136.48202367  .00000025  00000-0  56336-4 0  9997","TLE_LINE2":"2  4257  70.0129 159.3264 0020015 171.5160 338.1947 13.96377239882225"},{"CCSDS_OMM_VERS":"3.0","COMMENT":"GENERATED VIA SPACE-TRACK.ORG API","CREATION_DATE":"2026-05-16T17:43:08","ORIGINATOR":"18 SPCS","OBJECT_NAME":"OPS 7613 (P\/L 3)","OBJECT_ID":"1969-082D","CENTER_NAME":"EARTH","REF_FRAME":"TEME","TIME_SYSTEM":"UTC","MEAN_ELEMENT_THEORY":"SGP4","EPOCH":"2026-05-16T14:30:08.967744","MEAN_MOTION":"13.95121032","ECCENTRICITY":"0.00213921","INCLINATION":"70.0147","RA_OF_ASC_NODE":"202.9717","ARG_OF_PERICENTER":"197.2384","MEAN_ANOMALY":"329.7638","EPHEMERIS_TYPE":"0","CLASSIFICATION_TYPE":"U","NORAD_CAT_ID":"4259","ELEMENT_SET_NO":"999","REV_AT_EPOCH":"97727","BSTAR":"0.00003522740800","MEAN_MOTION_DOT":"-0.00000005","MEAN_MOTION_DDOT":"0.0000000000000","SEMIMAJOR_AXIS":"7288.876","PERIOD":"103.217","APOAPSIS":"926.334","PERIAPSIS":"895.149","OBJECT_TYPE":"PAYLOAD","RCS_SIZE":"MEDIUM","COUNTRY_CODE":"US","LAUNCH_DATE":"1969-09-30","SITE":"AFWTR","DECAY_DATE":null,"FILE":"5196581","GP_ID":"323457518","TLE_LINE0":"0 OPS 7613 (P\/L 3)","TLE_LINE1":"1 04259U 69082D   26136.60427046 -.00000005  00000-0  35227-4 0  9991","TLE_LINE2":"2 04259  70.0147 202.9717 0021392 197.2384 329.7638 13.95121032977277"},{"CCSDS_OMM_VERS":"3.0","COMMENT":"GENERATED VIA SPACE-TRACK.ORG API","CREATION_DATE":"2026-05-16T17:43:08","ORIGINATOR":"18 SPCS","OBJECT_NAME":"THORAD AGENA D DEB","OBJECT_ID":"1969-082DL","CENTER_NAME":"EARTH","REF_FRAME":"TEME","TIME_SYSTEM":"UTC","MEAN_ELEMENT_THEORY":"SGP4","EPOCH":"2026-05-16T14:11:35.801376","MEAN_MOTION":"14.07425019","ECCENTRICITY":"0.00437035","INCLINATION":"70.0209","RA_OF_ASC_NODE":"90.5490","ARG_OF_PERICENTER":"270.3091","MEAN_ANOMALY":"89.3013","EPHEMERIS_TYPE":"0","CLASSIFICATION_TYPE":"U","NORAD_CAT_ID":"4277","ELEMENT_SET_NO":"999","REV_AT_EPOCH":"90405","BSTAR":"-0.00005569257200","MEAN_MOTION_DOT":"-0.00000149","MEAN_MOTION_DDOT":"0.0000000000000","SEMIMAJOR_AXIS":"7246.334","PERIOD":"102.315","APOAPSIS":"899.868","PERIAPSIS":"836.530","OBJECT_TYPE":"DEBRIS","RCS_SIZE":"MEDIUM","COUNTRY_CODE":"US","LAUNCH_DATE":"1969-09-30","SITE":"AFWTR","DECAY_DATE":null,"FILE":"5196581","GP_ID":"323458019","TLE_LINE0":"0 THORAD AGENA D DEB","TLE_LINE1":"1 04277U 69082DL  26136.59138659 -.00000149  00000-0 -55693-4 0  9997","TLE_LINE2":"2 04277  70.0209  90.5490 0043704 270.3091  89.3013 14.07425019904052"},{"CCSDS_OMM_VERS":"3.0","COMMENT":"GENERATED VIA SPACE-TRACK.ORG API","CREATION_DATE":"2026-05-16T19:46:19","ORIGINATOR":"18 SPCS","OBJECT_NAME":"OPS 7613 (P\/L 6)","OBJECT_ID":"1969-082G","CENTER_NAME":"EARTH","REF_FRAME":"TEME","TIME_SYSTEM":"UTC","MEAN_ELEMENT_THEORY":"SGP4","EPOCH":"2026-05-16T12:57:25.423776","MEAN_MOTION":"13.95592683","ECCENTRICITY":"0.00211670","INCLINATION":"70.0110","RA_OF_ASC_NODE":"177.0351","ARG_OF_PERICENTER":"195.8697","MEAN_ANOMALY":"164.1747","EPHEMERIS_TYPE":"0","CLASSIFICATION_TYPE":"U","NORAD_CAT_ID":"4295","ELEMENT_SET_NO":"999","REV_AT_EPOCH":"88107","BSTAR":"0.00005977100000","MEAN_MOTION_DOT":"0.00000029","MEAN_MOTION_DDOT":"0.0000000000000","SEMIMAJOR_AXIS":"7287.234","PERIOD":"103.182","APOAPSIS":"924.524","PERIAPSIS":"893.674","OBJECT_TYPE":"PAYLOAD","RCS_SIZE":"MEDIUM","COUNTRY_CODE":"US","LAUNCH_DATE":"1969-09-30","SITE":"AFWTR","DECAY_DATE":null,"FILE":"5196718","GP_ID":"323494489","TLE_LINE0":"0 OPS 7613 (P\/L 6)","TLE_LINE1":"1  4295U 69082G   26136.53987759  .00000029  00000-0  59771-4 0  9990","TLE_LINE2":"2  4295  70.0110 177.0351 0021167 195.8697 164.1747 13.95592683881072"},{"CCSDS_OMM_VERS":"3.0","COMMENT":"GENERATED VIA SPACE-TRACK.ORG API","CREATION_DATE":"2026-05-16T17:43:08","ORIGINATOR":"18 SPCS","OBJECT_NAME":"INTELSAT 3-F6","OBJECT_ID":"1970-003A","CENTER_NAME":"EARTH","REF_FRAME":"TEME","TIME_SYSTEM":"UTC","MEAN_ELEMENT_THEORY":"SGP4","EPOCH":"2026-05-16T09:05:08.512800","MEAN_MOTION":"0.99159377","ECCENTRICITY":"0.00111404","INCLINATION":"1.0046","RA_OF_ASC_NODE":"90.2717","ARG_OF_PERICENTER":"264.9428","MEAN_ANOMALY":"335.0685","EPHEMERIS_TYPE":"0","CLASSIFICATION_TYPE":"U","NORAD_CAT_ID":"4297","ELEMENT_SET_NO":"999","REV_AT_EPOCH":"17654","BSTAR":"0.00000000000000","MEAN_MOTION_DOT":"-0.00000229","MEAN_MOTION_DDOT":"0.0000000000000","SEMIMAJOR_AXIS":"42479.492","PERIOD":"1452.208","APOAPSIS":"36148.681","PERIAPSIS":"36054.033","OBJECT_TYPE":"PAYLOAD","RCS_SIZE":"LARGE","COUNTRY_CODE":"ITSO","LAUNCH_DATE":"1970-01-15","SITE":"AFETR","DECAY_DATE":null,"FILE":"5196581","GP_ID":"323458020","TLE_LINE0":"0 INTELSAT 3-F6","TLE_LINE1":"1 04297U 70003A   26136.37857075 -.00000229  00000-0  00000-0 0  9996","TLE_LINE2":"2 04297   1.0046  90.2717 0011140 264.9428 335.0685  0.99159377176546"},{"CCSDS_OMM_VERS":"3.0","COMMENT":"GENERATED VIA SPACE-TRACK.ORG API","CREATION_DATE":"2026-05-16T10:38:26","ORIGINATOR":"18 SPCS","OBJECT_NAME":"DELTA 1 R\/B","OBJECT_ID":"1970-003B","CENTER_NAME":"EARTH","REF_FRAME":"TEME","TIME_SYSTEM":"UTC","MEAN_ELEMENT_THEORY":"SGP4","EPOCH":"2026-05-15T16:26:18.320064","MEAN_MOTION":"3.27170528","ECCENTRICITY":"0.65025490","INCLINATION":"28.0058","RA_OF_ASC_NODE":"74.4438","ARG_OF_PERICENTER":"34.2359","MEAN_ANOMALY":"354.0977","EPHEMERIS_TYPE":"0","CLASSIFICATION_TYPE":"U","NORAD_CAT_ID":"4298","ELEMENT_SET_NO":"999","REV_AT_EPOCH":"56274","BSTAR":"0.00109410000000","MEAN_MOTION_DOT":"0.00001963","MEAN_MOTION_DDOT":"0.0000000000000","SEMIMAJOR_AXIS":"19166.923","PERIOD":"440.137","APOAPSIS":"25252.173","PERIAPSIS":"325.402","OBJECT_TYPE":"ROCKET BODY","RCS_SIZE":"LARGE","COUNTRY_CODE":"US","LAUNCH_DATE":"1970-01-15","SITE":"AFETR","DECAY_DATE":null,"FILE":"5196540","GP_ID":"323424320","TLE_LINE0":"0 DELTA 1 R\/B","TLE_LINE1":"1 04298U 70003B   26135.68493426  .00001963  00000-0  10941-2 0  9998","TLE_LINE2":"2 04298  28.0058  74.4438 6502549  34.2359 354.0977  3.27170528562749"},{"CCSDS_OMM_VERS":"3.0","COMMENT":"GENERATED VIA SPACE-TRACK.ORG API","CREATION_DATE":"2026-05-16T10:38:26","ORIGINATOR":"18 SPCS","OBJECT_NAME":"THORAD AGENA D DEB","OBJECT_ID":"1969-082DR","CENTER_NAME":"EARTH","REF_FRAME":"TEME","TIME_SYSTEM":"UTC","MEAN_ELEMENT_THEORY":"SGP4","EPOCH":"2026-05-15T21:44:43.875168","MEAN_MOTION":"14.76743353","ECCENTRICITY":"0.00467625","INCLINATION":"70.3284","RA_OF_ASC_NODE":"114.7602","ARG_OF_PERICENTER":"55.2349","MEAN_ANOMALY":"305.3190","EPHEMERIS_TYPE":"0","CLASSIFICATION_TYPE":"U","NORAD_CAT_ID":"4311","ELEMENT_SET_NO":"999","REV_AT_EPOCH":"97268","BSTAR":"0.00039294262000","MEAN_MOTION_DOT":"0.00002731","MEAN_MOTION_DDOT":"0.0000000000000","SEMIMAJOR_AXIS":"7017.760","PERIOD":"97.512","APOAPSIS":"672.441","PERIAPSIS":"606.808","OBJECT_TYPE":"DEBRIS","RCS_SIZE":"SMALL","COUNTRY_CODE":"US","LAUNCH_DATE":"1969-09-30","SITE":"AFWTR","DECAY_DATE":null,"FILE":"5196540","GP_ID":"323423821","TLE_LINE0":"0 THORAD AGENA D DEB","TLE_LINE1":"1 04311U 69082DR  26135.90606337  .00002731  00000-0  39294-3 0  9998","TLE_LINE2":"2 04311  70.3284 114.7602 0046763  55.2349 305.3190 14.76743353972686"}]